{
  "type": "FeatureCollection",
  "features": [
    {
      "type": "Feature",
      "properties": {
        "norad_id": 57400,
        "name": "TIANMU-1 08",
        "group": "weather",
        "lat": -30.519043887568266,
        "lon": -154.22100948685687,
        "alt_km": 489.8263137194717,
        "timestamp": "2025-12-06T07:31:39.888088+00:00",
        "meta_object_name": "TIANMU-1 08",
        "meta_object_id": "2023-101B",
        "meta_epoch": "2025-12-05T07:01:56.205696",
        "meta_mean_motion": 15.27892626,
        "meta_eccentricity": 0.00074844,
        "meta_inclination": 97.2876,
        "meta_ra_of_asc_node": 29.1075,
        "meta_arg_of_pericenter": 104.73,
        "meta_mean_anomaly": 255.477,
        "meta_ephemeris_type": 0,
        "meta_classification_type": "U",
        "meta_norad_cat_id": 57400,
        "meta_element_set_no": 999,
        "meta_rev_at_epoch": 13201,
        "meta_bstar": 0.00049063079,
        "meta_mean_motion_dot": 0.00013306,
        "meta_mean_motion_ddot": 0,
        "tle_line1": "1 57400U 23101B   25339.29301164  .00013306  00000+0  49063-3 0  9998",
        "tle_line2": "2 57400  97.2876  29.1075 0007484 104.7300 255.4770 15.27892626132014"
      },
      "geometry": {
        "type": "Point",
        "coordinates": [
          -154.22100948685687,
          -30.519043887568266
        ]
      }
    },
    {
      "type": "Feature",
      "properties": {
        "norad_id": 57401,
        "name": "TIANMU-1 09",
        "group": "weather",
        "lat": -75.48120859581356,
        "lon": 59.217132193303286,
        "alt_km": 493.96053994976955,
        "timestamp": "2025-12-06T07:31:39.888098+00:00",
        "meta_object_name": "TIANMU-1 09",
        "meta_object_id": "2023-101C",
        "meta_epoch": "2025-12-05T06:43:05.512224",
        "meta_mean_motion": 15.27917175,
        "meta_eccentricity": 0.00067935,
        "meta_inclination": 97.2832,
        "meta_ra_of_asc_node": 28.6121,
        "meta_arg_of_pericenter": 104.0578,
        "meta_mean_anomaly": 256.1417,
        "meta_ephemeris_type": 0,
        "meta_classification_type": "U",
        "meta_norad_cat_id": 57401,
        "meta_element_set_no": 999,
        "meta_rev_at_epoch": 13201,
        "meta_bstar": 0.000505783,
        "meta_mean_motion_dot": 0.00013729,
        "meta_mean_motion_ddot": 0,
        "tle_line1": "1 57401U 23101C   25339.27992491  .00013729  00000+0  50578-3 0  9998",
        "tle_line2": "2 57401  97.2832  28.6121 0006793 104.0578 256.1417 15.27917175132018"
      },
      "geometry": {
        "type": "Point",
        "coordinates": [
          59.217132193303286,
          -75.48120859581356
        ]
      }
    },
    {
      "type": "Feature",
      "properties": {
        "norad_id": 57402,
        "name": "TIANMU-1 10",
        "group": "weather",
        "lat": 81.30034597031513,
        "lon": -92.73418645873855,
        "alt_km": 468.75208047942215,
        "timestamp": "2025-12-06T07:31:39.888108+00:00",
        "meta_object_name": "TIANMU-1 10",
        "meta_object_id": "2023-101D",
        "meta_epoch": "2025-12-05T05:57:59.661216",
        "meta_mean_motion": 15.27905913,
        "meta_eccentricity": 0.00085299,
        "meta_inclination": 97.2913,
        "meta_ra_of_asc_node": 29.4234,
        "meta_arg_of_pericenter": 104.9947,
        "meta_mean_anomaly": 255.2238,
        "meta_ephemeris_type": 0,
        "meta_classification_type": "U",
        "meta_norad_cat_id": 57402,
        "meta_element_set_no": 999,
        "meta_rev_at_epoch": 13200,
        "meta_bstar": 0.00047626429,
        "meta_mean_motion_dot": 0.00012922,
        "meta_mean_motion_ddot": 0,
        "tle_line1": "1 57402U 23101D   25339.24860719  .00012922  00000+0  47626-3 0  9997",
        "tle_line2": "2 57402  97.2913  29.4234 0008529 104.9947 255.2238 15.27905913132008"
      },
      "geometry": {
        "type": "Point",
        "coordinates": [
          -92.73418645873855,
          81.30034597031513
        ]
      }
    },
    {
      "type": "Feature",
      "properties": {
        "norad_id": 57490,
        "name": "FENGYUN 3F",
        "group": "weather",
        "lat": -28.62311809694897,
        "lon": 53.50912348734925,
        "alt_km": 831.723529910515,
        "timestamp": "2025-12-06T07:31:39.888118+00:00",
        "meta_object_name": "FENGYUN 3F",
        "meta_object_id": "2023-111A",
        "meta_epoch": "2025-12-05T07:59:12.657696",
        "meta_mean_motion": 14.19890554,
        "meta_eccentricity": 6.669e-05,
        "meta_inclination": 98.7093,
        "meta_ra_of_asc_node": 47.7455,
        "meta_arg_of_pericenter": 89.0254,
        "meta_mean_anomaly": 271.0999,
        "meta_ephemeris_type": 0,
        "meta_classification_type": "U",
        "meta_norad_cat_id": 57490,
        "meta_element_set_no": 999,
        "meta_rev_at_epoch": 12135,
        "meta_bstar": 0.00011169542,
        "meta_mean_motion_dot": 1.93e-06,
        "meta_mean_motion_ddot": 0,
        "tle_line1": "1 57490U 23111A   25339.33278539  .00000193  00000+0  11170-3 0  9990",
        "tle_line2": "2 57490  98.7093  47.7455 0000666  89.0254 271.0999 14.19890554121356"
      },
      "geometry": {
        "type": "Point",
        "coordinates": [
          53.50912348734925,
          -28.62311809694897
        ]
      }
    },
    {
      "type": "Feature",
      "properties": {
        "norad_id": 58584,
        "name": "ARKTIKA-M 2",
        "group": "weather",
        "lat": -40.63770274590361,
        "lon": 21.283089222518303,
        "alt_km": 2895.9325699219326,
        "timestamp": "2025-12-06T07:31:39.888130+00:00",
        "meta_object_name": "ARKTIKA-M 2",
        "meta_object_id": "2023-198A",
        "meta_epoch": "2025-12-03T08:34:19.284960",
        "meta_mean_motion": 2.00605176,
        "meta_eccentricity": 0.68642509,
        "meta_inclination": 63.2223,
        "meta_ra_of_asc_node": 175.9121,
        "meta_arg_of_pericenter": 268.1397,
        "meta_mean_anomaly": 18.842,
        "meta_ephemeris_type": 0,
        "meta_classification_type": "U",
        "meta_norad_cat_id": 58584,
        "meta_element_set_no": 999,
        "meta_rev_at_epoch": 1439,
        "meta_bstar": 0,
        "meta_mean_motion_dot": 2.24e-06,
        "meta_mean_motion_ddot": 0,
        "tle_line1": "1 58584U 23198A   25337.35716765  .00000224  00000+0  00000+0 0  9999",
        "tle_line2": "2 58584  63.2223 175.9121 6864250 268.1397  18.8420  2.00605176 14390"
      },
      "geometry": {
        "type": "Point",
        "coordinates": [
          21.283089222518303,
          -40.63770274590361
        ]
      }
    },
    {
      "type": "Feature",
      "properties": {
        "norad_id": 58645,
        "name": "TIANMU-1 11",
        "group": "weather",
        "lat": -6.2130040221075244,
        "lon": 0.8570756060077221,
        "alt_km": 490.5349247900267,
        "timestamp": "2025-12-06T07:31:39.888143+00:00",
        "meta_object_name": "TIANMU-1 11",
        "meta_object_id": "2023-205A",
        "meta_epoch": "2025-12-05T07:55:31.012320",
        "meta_mean_motion": 15.24463713,
        "meta_eccentricity": 0.00086338,
        "meta_inclination": 97.3605,
        "meta_ra_of_asc_node": 359.0847,
        "meta_arg_of_pericenter": 339.9405,
        "meta_mean_anomaly": 20.1492,
        "meta_ephemeris_type": 0,
        "meta_classification_type": "U",
        "meta_norad_cat_id": 58645,
        "meta_element_set_no": 999,
        "meta_rev_at_epoch": 10796,
        "meta_bstar": 0.00047491352,
        "meta_mean_motion_dot": 0.00011611,
        "meta_mean_motion_ddot": 0,
        "tle_line1": "1 58645U 23205A   25339.33022005  .00011611  00000+0  47491-3 0  9994",
        "tle_line2": "2 58645  97.3605 359.0847 0008633 339.9405  20.1492 15.24463713107966"
      },
      "geometry": {
        "type": "Point",
        "coordinates": [
          0.8570756060077221,
          -6.2130040221075244
        ]
      }
    },
    {
      "type": "Feature",
      "properties": {
        "norad_id": 58646,
        "name": "TIANMU-1 12",
        "group": "weather",
        "lat": -28.362267980111966,
        "lon": 175.8574763140054,
        "alt_km": 500.24972106034693,
        "timestamp": "2025-12-06T07:31:39.888155+00:00",
        "meta_object_name": "TIANMU-1 12",
        "meta_object_id": "2023-205B",
        "meta_epoch": "2025-12-05T06:59:02.825952",
        "meta_mean_motion": 15.2437511,
        "meta_eccentricity": 0.0006468,
        "meta_inclination": 97.3592,
        "meta_ra_of_asc_node": 358.8541,
        "meta_arg_of_pericenter": 324.9962,
        "meta_mean_anomaly": 35.0849,
        "meta_ephemeris_type": 0,
        "meta_classification_type": "U",
        "meta_norad_cat_id": 58646,
        "meta_element_set_no": 999,
        "meta_rev_at_epoch": 10794,
        "meta_bstar": 0.00045441582,
        "meta_mean_motion_dot": 0.00011072,
        "meta_mean_motion_ddot": 0,
        "tle_line1": "1 58646U 23205B   25339.29100493  .00011072  00000+0  45442-3 0  9993",
        "tle_line2": "2 58646  97.3592 358.8541 0006468 324.9962  35.0849 15.24375110107948"
      },
      "geometry": {
        "type": "Point",
        "coordinates": [
          175.8574763140054,
          -28.362267980111966
        ]
      }
    }
  ]
}